ONEWEB-0249             
1 48967U 21060A   25224.58043797  .00000024  00000+0  28604-4 0  9990
2 48967  87.9035 290.2958 0001916  96.3577 263.7772 13.16592946199006
ONEWEB-0250             
1 48968U 21060B   25224.56639706  .00000039  00000+0  59284-4 0  9994
2 48968  87.9030 289.0658 0001050  92.2674 267.8582 13.25811856199320
ONEWEB-0252             
1 48970U 21060D   25224.61210434 -.00000050  00000+0 -16332-3 0  9997
2 48970  87.9030 290.2826 0002330  98.3595 261.7800 13.16592984199059
ONEWEB-0253             
1 48971U 21060E   25224.60100995 -.00000083  00000+0 -25134-3 0  9993
2 48971  87.9027 290.2885 0002016  90.5050 269.6311 13.16592126198985
ONEWEB-0254             
1 48972U 21060F   25224.61051768  .00000009  00000+0 -10102-4 0  9995
2 48972  87.9032 290.2727 0001792  85.6627 274.4709 13.16595770198985
ONEWEB-0255             
1 48973U 21060G   25224.57251611  .00000070  00000+0  14971-3 0  9994
2 48973  87.9027 290.3094 0001912  88.9106 271.2244 13.16592851199055
ONEWEB-0256             
1 48974U 21060H   25224.59864336 -.00000060  00000+0 -19076-3 0  9993
2 48974  87.9026 290.3151 0002128  98.4761 261.6611 13.16593651199029
ONEWEB-0257             
1 48975U 21060J   25224.47910569  .00000101  00000+0  23035-3 0  9995
2 48975  87.9031 290.3060 0002060  90.6084 269.5283 13.16592904198966
